CCSDS_OMM_VERS = 2.0
CREATION_DATE  = 
ORIGINATOR     = 

OBJECT_NAME    = UNKNOWN
OBJECT_ID      = 
CENTER_NAME    = EARTH
REF_FRAME      = TEME
TIME_SYSTEM    = UTC
MEAN_ELEMENT_THEORY = SGP/SGP4

EPOCH          = 2025-12-30T04:34:17.250816
MEAN_MOTION    = 14.41129122
ECCENTRICITY   = .0048085
INCLINATION    = 98.4231
RA_OF_ASC_NODE = 334.9715
ARG_OF_PERICENTER = 109.3643
MEAN_ANOMALY   = 269.7629

EPHEMERIS_TYPE = 0
CLASSIFICATION_TYPE = U
NORAD_CAT_ID   = 85004
ELEMENT_SET_NO = 999
REV_AT_EPOCH   = 63341
BSTAR          = .53823E-3
MEAN_MOTION_DOT = .1715E-4
MEAN_MOTION_DDOT = 0

CCSDS_OMM_VERS = 2.0
CREATION_DATE  = 
ORIGINATOR     = 

OBJECT_NAME    = UNKNOWN
OBJECT_ID      = 
CENTER_NAME    = EARTH
REF_FRAME      = TEME
TIME_SYSTEM    = UTC
MEAN_ELEMENT_THEORY = SGP/SGP4

EPOCH          = 2025-12-30T02:15:17.947008
MEAN_MOTION    = 13.75092612
ECCENTRICITY   = .0025077
INCLINATION    = 99.2483
RA_OF_ASC_NODE = 225.4731
ARG_OF_PERICENTER = 209.7149
MEAN_ANOMALY   = 304.2048

EPHEMERIS_TYPE = 0
CLASSIFICATION_TYPE = U
NORAD_CAT_ID   = 85010
ELEMENT_SET_NO = 999
REV_AT_EPOCH   = 60630
BSTAR          = .15968E-2
MEAN_MOTION_DOT = .1487E-4
MEAN_MOTION_DDOT = 0

CCSDS_OMM_VERS = 2.0
CREATION_DATE  = 
ORIGINATOR     = 

OBJECT_NAME    = UNKNOWN
OBJECT_ID      = 
CENTER_NAME    = EARTH
REF_FRAME      = TEME
TIME_SYSTEM    = UTC
MEAN_ELEMENT_THEORY = SGP/SGP4

EPOCH          = 2025-12-27T18:06:58.964832
MEAN_MOTION    = 14.62307629
ECCENTRICITY   = .0016703
INCLINATION    = 74.0489
RA_OF_ASC_NODE = 9.4705
ARG_OF_PERICENTER = 272.8549
MEAN_ANOMALY   = 87.0706

EPHEMERIS_TYPE = 0
CLASSIFICATION_TYPE = U
NORAD_CAT_ID   = 85015
ELEMENT_SET_NO = 999
REV_AT_EPOCH   = 64480
BSTAR          = .14884E-3
MEAN_MOTION_DOT = .722E-5
MEAN_MOTION_DDOT = 0

CCSDS_OMM_VERS = 2.0
CREATION_DATE  = 
ORIGINATOR     = 

OBJECT_NAME    = UNKNOWN
OBJECT_ID      = 
CENTER_NAME    = EARTH
REF_FRAME      = TEME
TIME_SYSTEM    = UTC
MEAN_ELEMENT_THEORY = SGP/SGP4

EPOCH          = 2025-12-30T12:55:05.609568
MEAN_MOTION    = 14.75396079
ECCENTRICITY   = .0001857
INCLINATION    = 99.8503
RA_OF_ASC_NODE = 23.8560
ARG_OF_PERICENTER = 259.8345
MEAN_ANOMALY   = 252.4476

EPHEMERIS_TYPE = 0
CLASSIFICATION_TYPE = U
NORAD_CAT_ID   = 85023
ELEMENT_SET_NO = 999
REV_AT_EPOCH   = 63145
BSTAR          = .64569E-2
MEAN_MOTION_DOT = .44057E-3
MEAN_MOTION_DDOT = 0

CCSDS_OMM_VERS = 2.0
CREATION_DATE  = 
ORIGINATOR     = 

OBJECT_NAME    = UNKNOWN
OBJECT_ID      = 
CENTER_NAME    = EARTH
REF_FRAME      = TEME
TIME_SYSTEM    = UTC
MEAN_ELEMENT_THEORY = SGP/SGP4

EPOCH          = 2025-12-29T11:07:38.075232
MEAN_MOTION    = 13.74254226
ECCENTRICITY   = .017603
INCLINATION    = 66.0419
RA_OF_ASC_NODE = 60.5554
ARG_OF_PERICENTER = 181.9345
MEAN_ANOMALY   = 178.1060

EPHEMERIS_TYPE = 0
CLASSIFICATION_TYPE = U
NORAD_CAT_ID   = 85027
ELEMENT_SET_NO = 999
REV_AT_EPOCH   = 60691
BSTAR          = .25358E-3
MEAN_MOTION_DOT = .189E-5
MEAN_MOTION_DDOT = 0

CCSDS_OMM_VERS = 2.0
CREATION_DATE  = 
ORIGINATOR     = 

OBJECT_NAME    = UNKNOWN
OBJECT_ID      = 
CENTER_NAME    = EARTH
REF_FRAME      = TEME
TIME_SYSTEM    = UTC
MEAN_ELEMENT_THEORY = SGP/SGP4

EPOCH          = 2025-12-28T04:36:25.869312
MEAN_MOTION    = 13.44645901
ECCENTRICITY   = .0163502
INCLINATION    = 102.1884
RA_OF_ASC_NODE = 330.8705
ARG_OF_PERICENTER = 340.6166
MEAN_ANOMALY   = 18.8785

EPHEMERIS_TYPE = 0
CLASSIFICATION_TYPE = U
NORAD_CAT_ID   = 85047
ELEMENT_SET_NO = 999
REV_AT_EPOCH   = 57873
BSTAR          = .28855E-1
MEAN_MOTION_DOT = .18271E-3
MEAN_MOTION_DDOT = 0

CCSDS_OMM_VERS = 2.0
CREATION_DATE  = 
ORIGINATOR     = 

OBJECT_NAME    = UNKNOWN
OBJECT_ID      = 
CENTER_NAME    = EARTH
REF_FRAME      = TEME
TIME_SYSTEM    = UTC
MEAN_ELEMENT_THEORY = SGP/SGP4

EPOCH          = 2025-12-30T11:03:33.941664
MEAN_MOTION    = 12.77120301
ECCENTRICITY   = .0255494
INCLINATION    = 102.3938
RA_OF_ASC_NODE = 349.8834
ARG_OF_PERICENTER = 157.3972
MEAN_ANOMALY   = 357.1926

EPHEMERIS_TYPE = 0
CLASSIFICATION_TYPE = U
NORAD_CAT_ID   = 85061
ELEMENT_SET_NO = 999
REV_AT_EPOCH   = 55804
BSTAR          = .18446E-1
MEAN_MOTION_DOT = .4571E-4
MEAN_MOTION_DDOT = 0

CCSDS_OMM_VERS = 2.0
CREATION_DATE  = 
ORIGINATOR     = 

OBJECT_NAME    = UNKNOWN
OBJECT_ID      = 
CENTER_NAME    = EARTH
REF_FRAME      = TEME
TIME_SYSTEM    = UTC
MEAN_ELEMENT_THEORY = SGP/SGP4

EPOCH          = 2025-12-28T07:11:28.634208
MEAN_MOTION    = 14.40722397
ECCENTRICITY   = .0011568
INCLINATION    = 74.0437
RA_OF_ASC_NODE = 194.0195
ARG_OF_PERICENTER = 56.0514
MEAN_ANOMALY   = 126.3561

EPHEMERIS_TYPE = 0
CLASSIFICATION_TYPE = U
NORAD_CAT_ID   = 85100
ELEMENT_SET_NO = 999
REV_AT_EPOCH   = 63558
BSTAR          = .15035E-3
MEAN_MOTION_DOT = .454E-5
MEAN_MOTION_DDOT = 0

CCSDS_OMM_VERS = 2.0
CREATION_DATE  = 
ORIGINATOR     = 

OBJECT_NAME    = UNKNOWN
OBJECT_ID      = 
CENTER_NAME    = EARTH
REF_FRAME      = TEME
TIME_SYSTEM    = UTC
MEAN_ELEMENT_THEORY = SGP/SGP4

EPOCH          = 2025-12-30T06:12:35.204256
MEAN_MOTION    = 13.72924714
ECCENTRICITY   = .000918
INCLINATION    = 100.0537
RA_OF_ASC_NODE = 105.9799
ARG_OF_PERICENTER = 326.2435
MEAN_ANOMALY   = 62.5996

EPHEMERIS_TYPE = 0
CLASSIFICATION_TYPE = U
NORAD_CAT_ID   = 85106
ELEMENT_SET_NO = 999
REV_AT_EPOCH   = 60547
BSTAR          = .10359E-2
MEAN_MOTION_DOT = .907E-5
MEAN_MOTION_DDOT = 0

CCSDS_OMM_VERS = 2.0
CREATION_DATE  = 
ORIGINATOR     = 

OBJECT_NAME    = UNKNOWN
OBJECT_ID      = 
CENTER_NAME    = EARTH
REF_FRAME      = TEME
TIME_SYSTEM    = UTC
MEAN_ELEMENT_THEORY = SGP/SGP4

EPOCH          = 2025-12-30T10:18:33.417216
MEAN_MOTION    = 14.79371964
ECCENTRICITY   = .0009703
INCLINATION    = 98.4046
RA_OF_ASC_NODE = 229.2510
ARG_OF_PERICENTER = 69.8983
MEAN_ANOMALY   = 290.3270

EPHEMERIS_TYPE = 0
CLASSIFICATION_TYPE = U
NORAD_CAT_ID   = 85151
ELEMENT_SET_NO = 999
REV_AT_EPOCH   = 48214
BSTAR          = .48198E-2
MEAN_MOTION_DOT = .36073E-3
MEAN_MOTION_DDOT = 0

CCSDS_OMM_VERS = 2.0
CREATION_DATE  = 
ORIGINATOR     = 

OBJECT_NAME    = UNKNOWN
OBJECT_ID      = 
CENTER_NAME    = EARTH
REF_FRAME      = TEME
TIME_SYSTEM    = UTC
MEAN_ELEMENT_THEORY = SGP/SGP4

EPOCH          = 2025-12-30T04:12:28.632096
MEAN_MOTION    = 13.71569005
ECCENTRICITY   = .021741
INCLINATION    = 99.8560
RA_OF_ASC_NODE = 145.6399
ARG_OF_PERICENTER = 269.3563
MEAN_ANOMALY   = 266.5335

EPHEMERIS_TYPE = 0
CLASSIFICATION_TYPE = U
NORAD_CAT_ID   = 85210
ELEMENT_SET_NO = 999
REV_AT_EPOCH   = 60454
BSTAR          = .13252E-2
MEAN_MOTION_DOT = .1364E-4
MEAN_MOTION_DDOT = 0

CCSDS_OMM_VERS = 2.0
CREATION_DATE  = 
ORIGINATOR     = 

OBJECT_NAME    = UNKNOWN
OBJECT_ID      = 
CENTER_NAME    = EARTH
REF_FRAME      = TEME
TIME_SYSTEM    = UTC
MEAN_ELEMENT_THEORY = SGP/SGP4

EPOCH          = 2025-12-29T17:04:02.208288
MEAN_MOTION    = 14.37286325
ECCENTRICITY   = .0208675
INCLINATION    = 98.0300
RA_OF_ASC_NODE = 96.9995
ARG_OF_PERICENTER = 77.2839
MEAN_ANOMALY   = 285.1586

EPHEMERIS_TYPE = 0
CLASSIFICATION_TYPE = U
NORAD_CAT_ID   = 85217
ELEMENT_SET_NO = 999
REV_AT_EPOCH   = 63029
BSTAR          = .83862E-3
MEAN_MOTION_DOT = .3171E-4
MEAN_MOTION_DDOT = 0

