UNKNOWN                 
1 85004U          25364.19047744  .00001715  00000+0  53823-3 0  9990
2 85004  98.4231 334.9715 0048085 109.3643 269.7629 14.41129122633414
UNKNOWN                 
1 85010U          25364.09395772  .00001487  00000+0  15968-2 0  9996
2 85010  99.2483 225.4731 0025077 209.7149 304.2048 13.75092612606300
UNKNOWN                 
1 85015U          25361.75484913  .00000722  00000+0  14884-3 0  9995
2 85015  74.0489   9.4705 0016703 272.8549  87.0706 14.62307629644802
UNKNOWN                 
1 85023U          25364.53825937  .00044057  00000+0  64569-2 0  9991
2 85023  99.8503  23.8560 0001857 259.8345 252.4476 14.75396079631455
UNKNOWN                 
1 85027U          25363.46363513  .00000189  00000+0  25358-3 0  9995
2 85027  66.0419  60.5554 0176030 181.9345 178.1060 13.74254226606914
UNKNOWN                 
1 85047U          25362.19196608  .00018271  00000+0  28855-1 0  9999
2 85047 102.1884 330.8705 0163502 340.6166  18.8785 13.44645901578733
UNKNOWN                 
1 85061U          25364.46080951  .00004571  00000+0  18446-1 0  9993
2 85061 102.3938 349.8834 0255494 157.3972 357.1926 12.77120301558049
UNKNOWN                 
1 85100U          25362.29963697  .00000454  00000+0  15035-3 0  9992
2 85100  74.0437 194.0195 0011568  56.0514 126.3561 14.40722397635582
UNKNOWN                 
1 85106U          25364.25874079  .00000907  00000+0  10359-2 0  9997
2 85106 100.0537 105.9799 0009180 326.2435  62.5996 13.72924714605470
UNKNOWN                 
1 85151U          25364.42955344  .00036073  00000+0  48198-2 0  9996
2 85151  98.4046 229.2510 0009703  69.8983 290.3270 14.79371964482149
UNKNOWN                 
1 85210U          25364.17533139  .00001364  00000+0  13252-2 0  9996
2 85210  99.8560 145.6399 0217410 269.3563 266.5335 13.71569005604547
UNKNOWN                 
1 85217U          25363.71113667  .00003171  00000+0  83862-3 0  9995
2 85217  98.0300  96.9995 0208675  77.2839 285.1586 14.37286325630292
